CONNECTA IOT-1
1 60472U 24149E   25258.76555996  .00005670  00000+0  23868-3 0  9990
2 60472  97.4043 334.5285 0003386 128.2456 231.9086 15.23760049 60031
